; LT-20W-A air-assist pass ladder
; Generated by Codex Laser Engraver
G21
G90
G94
M5
; Five small squares with increasing pass counts for cut-through testing.
M8
; Square 1: 1 pass(es), F260, S760
; Cut pass 1 of 1
G0 X10.000 Y12.000
M4 S760
G1 X20.000 Y12.000 F260 S760
G1 X20.000 Y22.000 F260 S760
G1 X10.000 Y22.000 F260 S760
G1 X10.000 Y12.000 F260 S760
M5
; Square 2: 2 pass(es), F260, S760
; Cut pass 1 of 2
G0 X25.000 Y12.000
M4 S760
G1 X35.000 Y12.000 F260 S760
G1 X35.000 Y22.000 F260 S760
G1 X25.000 Y22.000 F260 S760
G1 X25.000 Y12.000 F260 S760
M5
; Cut pass 2 of 2
G0 X25.000 Y12.000
M4 S760
G1 X35.000 Y12.000 F260 S760
G1 X35.000 Y22.000 F260 S760
G1 X25.000 Y22.000 F260 S760
G1 X25.000 Y12.000 F260 S760
M5
; Square 3: 3 pass(es), F260, S760
; Cut pass 1 of 3
G0 X40.000 Y12.000
M4 S760
G1 X50.000 Y12.000 F260 S760
G1 X50.000 Y22.000 F260 S760
G1 X40.000 Y22.000 F260 S760
G1 X40.000 Y12.000 F260 S760
M5
; Cut pass 2 of 3
G0 X40.000 Y12.000
M4 S760
G1 X50.000 Y12.000 F260 S760
G1 X50.000 Y22.000 F260 S760
G1 X40.000 Y22.000 F260 S760
G1 X40.000 Y12.000 F260 S760
M5
; Cut pass 3 of 3
G0 X40.000 Y12.000
M4 S760
G1 X50.000 Y12.000 F260 S760
G1 X50.000 Y22.000 F260 S760
G1 X40.000 Y22.000 F260 S760
G1 X40.000 Y12.000 F260 S760
M5
; Square 4: 4 pass(es), F260, S760
; Cut pass 1 of 4
G0 X55.000 Y12.000
M4 S760
G1 X65.000 Y12.000 F260 S760
G1 X65.000 Y22.000 F260 S760
G1 X55.000 Y22.000 F260 S760
G1 X55.000 Y12.000 F260 S760
M5
; Cut pass 2 of 4
G0 X55.000 Y12.000
M4 S760
G1 X65.000 Y12.000 F260 S760
G1 X65.000 Y22.000 F260 S760
G1 X55.000 Y22.000 F260 S760
G1 X55.000 Y12.000 F260 S760
M5
; Cut pass 3 of 4
G0 X55.000 Y12.000
M4 S760
G1 X65.000 Y12.000 F260 S760
G1 X65.000 Y22.000 F260 S760
G1 X55.000 Y22.000 F260 S760
G1 X55.000 Y12.000 F260 S760
M5
; Cut pass 4 of 4
G0 X55.000 Y12.000
M4 S760
G1 X65.000 Y12.000 F260 S760
G1 X65.000 Y22.000 F260 S760
G1 X55.000 Y22.000 F260 S760
G1 X55.000 Y12.000 F260 S760
M5
; Square 5: 5 pass(es), F260, S760
; Cut pass 1 of 5
G0 X70.000 Y12.000
M4 S760
G1 X80.000 Y12.000 F260 S760
G1 X80.000 Y22.000 F260 S760
G1 X70.000 Y22.000 F260 S760
G1 X70.000 Y12.000 F260 S760
M5
; Cut pass 2 of 5
G0 X70.000 Y12.000
M4 S760
G1 X80.000 Y12.000 F260 S760
G1 X80.000 Y22.000 F260 S760
G1 X70.000 Y22.000 F260 S760
G1 X70.000 Y12.000 F260 S760
M5
; Cut pass 3 of 5
G0 X70.000 Y12.000
M4 S760
G1 X80.000 Y12.000 F260 S760
G1 X80.000 Y22.000 F260 S760
G1 X70.000 Y22.000 F260 S760
G1 X70.000 Y12.000 F260 S760
M5
; Cut pass 4 of 5
G0 X70.000 Y12.000
M4 S760
G1 X80.000 Y12.000 F260 S760
G1 X80.000 Y22.000 F260 S760
G1 X70.000 Y22.000 F260 S760
G1 X70.000 Y12.000 F260 S760
M5
; Cut pass 5 of 5
G0 X70.000 Y12.000
M4 S760
G1 X80.000 Y12.000 F260 S760
G1 X80.000 Y22.000 F260 S760
G1 X70.000 Y22.000 F260 S760
G1 X70.000 Y12.000 F260 S760
M5
M9
M5
M9
G0 X0 Y0
; End
