; LT-20W-A air-assist speed ladder
; Generated by Codex Laser Engraver
G21
G90
G94
M5
; Five identical squares at different cutting speeds.
M8
; Square 1: F160, S760, 2 passes
; Cut pass 1 of 2
G0 X10.000 Y12.000
M4 S760
G1 X19.000 Y12.000 F160 S760
G1 X19.000 Y21.000 F160 S760
G1 X10.000 Y21.000 F160 S760
G1 X10.000 Y12.000 F160 S760
M5
; Cut pass 2 of 2
G0 X10.000 Y12.000
M4 S760
G1 X19.000 Y12.000 F160 S760
G1 X19.000 Y21.000 F160 S760
G1 X10.000 Y21.000 F160 S760
G1 X10.000 Y12.000 F160 S760
M5
; Square 2: F220, S760, 2 passes
; Cut pass 1 of 2
G0 X24.000 Y12.000
M4 S760
G1 X33.000 Y12.000 F220 S760
G1 X33.000 Y21.000 F220 S760
G1 X24.000 Y21.000 F220 S760
G1 X24.000 Y12.000 F220 S760
M5
; Cut pass 2 of 2
G0 X24.000 Y12.000
M4 S760
G1 X33.000 Y12.000 F220 S760
G1 X33.000 Y21.000 F220 S760
G1 X24.000 Y21.000 F220 S760
G1 X24.000 Y12.000 F220 S760
M5
; Square 3: F300, S760, 2 passes
; Cut pass 1 of 2
G0 X38.000 Y12.000
M4 S760
G1 X47.000 Y12.000 F300 S760
G1 X47.000 Y21.000 F300 S760
G1 X38.000 Y21.000 F300 S760
G1 X38.000 Y12.000 F300 S760
M5
; Cut pass 2 of 2
G0 X38.000 Y12.000
M4 S760
G1 X47.000 Y12.000 F300 S760
G1 X47.000 Y21.000 F300 S760
G1 X38.000 Y21.000 F300 S760
G1 X38.000 Y12.000 F300 S760
M5
; Square 4: F420, S760, 2 passes
; Cut pass 1 of 2
G0 X52.000 Y12.000
M4 S760
G1 X61.000 Y12.000 F420 S760
G1 X61.000 Y21.000 F420 S760
G1 X52.000 Y21.000 F420 S760
G1 X52.000 Y12.000 F420 S760
M5
; Cut pass 2 of 2
G0 X52.000 Y12.000
M4 S760
G1 X61.000 Y12.000 F420 S760
G1 X61.000 Y21.000 F420 S760
G1 X52.000 Y21.000 F420 S760
G1 X52.000 Y12.000 F420 S760
M5
; Square 5: F600, S760, 2 passes
; Cut pass 1 of 2
G0 X66.000 Y12.000
M4 S760
G1 X75.000 Y12.000 F600 S760
G1 X75.000 Y21.000 F600 S760
G1 X66.000 Y21.000 F600 S760
G1 X66.000 Y12.000 F600 S760
M5
; Cut pass 2 of 2
G0 X66.000 Y12.000
M4 S760
G1 X75.000 Y12.000 F600 S760
G1 X75.000 Y21.000 F600 S760
G1 X66.000 Y21.000 F600 S760
G1 X66.000 Y12.000 F600 S760
M5
M9
M5
M9
G0 X0 Y0
; End
