; LS ESP32 Pro air-assist cut demo
; Generated by Codex Laser Engraver
G21
G90
G94
M5
; Uses M8/M9 around a conservative multi-pass test square.
M8
; Pass 1 of 3
G0 X15.000 Y15.000
M4 S760
G1 X37.000 Y15.000 F240 S760
G1 X37.000 Y37.000 F240 S760
G1 X15.000 Y37.000 F240 S760
G1 X15.000 Y15.000 F240 S760
M5
; Pass 2 of 3
G0 X15.000 Y15.000
M4 S760
G1 X37.000 Y15.000 F240 S760
G1 X37.000 Y37.000 F240 S760
G1 X15.000 Y37.000 F240 S760
G1 X15.000 Y15.000 F240 S760
M5
; Pass 3 of 3
G0 X15.000 Y15.000
M4 S760
G1 X37.000 Y15.000 F240 S760
G1 X37.000 Y37.000 F240 S760
G1 X15.000 Y37.000 F240 S760
G1 X15.000 Y15.000 F240 S760
M5
M9
M5
M9
G0 X0 Y0
; End
