; LT-20W-A grayscale ramp
; Generated by Codex Laser Engraver
G21
G90
G94
M5
; Eight tone blocks for checking grayscale response.
G0 X10.000 Y10.000
M4 S40
G1 X19.000 Y10.000 F1800 S40
M5
G0 X19.000 Y10.450
M4 S40
G1 X10.000 Y10.450 F1800 S40
M5
G0 X10.000 Y10.900
M4 S40
G1 X19.000 Y10.900 F1800 S40
M5
G0 X19.000 Y11.350
M4 S40
G1 X10.000 Y11.350 F1800 S40
M5
G0 X10.000 Y11.800
M4 S40
G1 X19.000 Y11.800 F1800 S40
M5
G0 X19.000 Y12.250
M4 S40
G1 X10.000 Y12.250 F1800 S40
M5
G0 X10.000 Y12.700
M4 S40
G1 X19.000 Y12.700 F1800 S40
M5
G0 X19.000 Y13.150
M4 S40
G1 X10.000 Y13.150 F1800 S40
M5
G0 X10.000 Y13.600
M4 S40
G1 X19.000 Y13.600 F1800 S40
M5
G0 X19.000 Y14.050
M4 S40
G1 X10.000 Y14.050 F1800 S40
M5
G0 X10.000 Y14.500
M4 S40
G1 X19.000 Y14.500 F1800 S40
M5
G0 X19.000 Y14.950
M4 S40
G1 X10.000 Y14.950 F1800 S40
M5
G0 X10.000 Y15.400
M4 S40
G1 X19.000 Y15.400 F1800 S40
M5
G0 X19.000 Y15.850
M4 S40
G1 X10.000 Y15.850 F1800 S40
M5
G0 X10.000 Y16.300
M4 S40
G1 X19.000 Y16.300 F1800 S40
M5
G0 X19.000 Y16.750
M4 S40
G1 X10.000 Y16.750 F1800 S40
M5
G0 X10.000 Y17.200
M4 S40
G1 X19.000 Y17.200 F1800 S40
M5
G0 X19.000 Y17.650
M4 S40
G1 X10.000 Y17.650 F1800 S40
M5
G0 X10.000 Y18.100
M4 S40
G1 X19.000 Y18.100 F1800 S40
M5
G0 X19.000 Y18.550
M4 S40
G1 X10.000 Y18.550 F1800 S40
M5
G0 X10.000 Y19.000
M4 S40
G1 X19.000 Y19.000 F1800 S40
M5
G0 X19.000 Y19.450
M4 S40
G1 X10.000 Y19.450 F1800 S40
M5
G0 X10.000 Y19.900
M4 S40
G1 X19.000 Y19.900 F1800 S40
M5
G0 X19.000 Y20.350
M4 S40
G1 X10.000 Y20.350 F1800 S40
M5
G0 X10.000 Y20.800
M4 S40
G1 X19.000 Y20.800 F1800 S40
M5
G0 X19.000 Y21.250
M4 S40
G1 X10.000 Y21.250 F1800 S40
M5
G0 X10.000 Y21.700
M4 S40
G1 X19.000 Y21.700 F1800 S40
M5
G0 X19.000 Y22.150
M4 S40
G1 X10.000 Y22.150 F1800 S40
M5
G0 X10.000 Y22.600
M4 S40
G1 X19.000 Y22.600 F1800 S40
M5
G0 X19.000 Y23.050
M4 S40
G1 X10.000 Y23.050 F1800 S40
M5
G0 X10.000 Y23.500
M4 S40
G1 X19.000 Y23.500 F1800 S40
M5
G0 X19.000 Y23.950
M4 S40
G1 X10.000 Y23.950 F1800 S40
M5
G0 X10.000 Y24.400
M4 S40
G1 X19.000 Y24.400 F1800 S40
M5
G0 X19.000 Y24.850
M4 S40
G1 X10.000 Y24.850 F1800 S40
M5
G0 X10.000 Y25.300
M4 S40
G1 X19.000 Y25.300 F1800 S40
M5
G0 X19.000 Y25.750
M4 S40
G1 X10.000 Y25.750 F1800 S40
M5
G0 X10.000 Y26.200
M4 S40
G1 X19.000 Y26.200 F1800 S40
M5
G0 X19.000 Y26.650
M4 S40
G1 X10.000 Y26.650 F1800 S40
M5
G0 X10.000 Y27.100
M4 S40
G1 X19.000 Y27.100 F1800 S40
M5
G0 X19.000 Y27.550
M4 S40
G1 X10.000 Y27.550 F1800 S40
M5
G0 X10.000 Y28.000
M4 S40
G1 X19.000 Y28.000 F1800 S40
M5
G0 X19.000 Y28.450
M4 S40
G1 X10.000 Y28.450 F1800 S40
M5
G0 X10.000 Y28.900
M4 S40
G1 X19.000 Y28.900 F1800 S40
M5
G0 X19.000 Y29.350
M4 S40
G1 X10.000 Y29.350 F1800 S40
M5
G0 X10.000 Y29.800
M4 S40
G1 X19.000 Y29.800 F1800 S40
M5
G0 X19.000 Y30.250
M4 S40
G1 X10.000 Y30.250 F1800 S40
M5
G0 X10.000 Y30.700
M4 S40
G1 X19.000 Y30.700 F1800 S40
M5
G0 X19.000 Y31.150
M4 S40
G1 X10.000 Y31.150 F1800 S40
M5
G0 X10.000 Y31.600
M4 S40
G1 X19.000 Y31.600 F1800 S40
M5
G0 X19.000 Y32.050
M4 S40
G1 X10.000 Y32.050 F1800 S40
M5
G0 X10.000 Y32.500
M4 S40
G1 X19.000 Y32.500 F1800 S40
M5
G0 X19.000 Y32.950
M4 S40
G1 X10.000 Y32.950 F1800 S40
M5
G0 X10.000 Y33.400
M4 S40
G1 X19.000 Y33.400 F1800 S40
M5
G0 X19.000 Y33.850
M4 S40
G1 X10.000 Y33.850 F1800 S40
M5
G0 X10.000 Y34.300
M4 S40
G1 X19.000 Y34.300 F1800 S40
M5
G0 X19.000 Y34.750
M4 S40
G1 X10.000 Y34.750 F1800 S40
M5
G0 X21.000 Y10.000
M4 S80
G1 X30.000 Y10.000 F1800 S80
M5
G0 X30.000 Y10.450
M4 S80
G1 X21.000 Y10.450 F1800 S80
M5
G0 X21.000 Y10.900
M4 S80
G1 X30.000 Y10.900 F1800 S80
M5
G0 X30.000 Y11.350
M4 S80
G1 X21.000 Y11.350 F1800 S80
M5
G0 X21.000 Y11.800
M4 S80
G1 X30.000 Y11.800 F1800 S80
M5
G0 X30.000 Y12.250
M4 S80
G1 X21.000 Y12.250 F1800 S80
M5
G0 X21.000 Y12.700
M4 S80
G1 X30.000 Y12.700 F1800 S80
M5
G0 X30.000 Y13.150
M4 S80
G1 X21.000 Y13.150 F1800 S80
M5
G0 X21.000 Y13.600
M4 S80
G1 X30.000 Y13.600 F1800 S80
M5
G0 X30.000 Y14.050
M4 S80
G1 X21.000 Y14.050 F1800 S80
M5
G0 X21.000 Y14.500
M4 S80
G1 X30.000 Y14.500 F1800 S80
M5
G0 X30.000 Y14.950
M4 S80
G1 X21.000 Y14.950 F1800 S80
M5
G0 X21.000 Y15.400
M4 S80
G1 X30.000 Y15.400 F1800 S80
M5
G0 X30.000 Y15.850
M4 S80
G1 X21.000 Y15.850 F1800 S80
M5
G0 X21.000 Y16.300
M4 S80
G1 X30.000 Y16.300 F1800 S80
M5
G0 X30.000 Y16.750
M4 S80
G1 X21.000 Y16.750 F1800 S80
M5
G0 X21.000 Y17.200
M4 S80
G1 X30.000 Y17.200 F1800 S80
M5
G0 X30.000 Y17.650
M4 S80
G1 X21.000 Y17.650 F1800 S80
M5
G0 X21.000 Y18.100
M4 S80
G1 X30.000 Y18.100 F1800 S80
M5
G0 X30.000 Y18.550
M4 S80
G1 X21.000 Y18.550 F1800 S80
M5
G0 X21.000 Y19.000
M4 S80
G1 X30.000 Y19.000 F1800 S80
M5
G0 X30.000 Y19.450
M4 S80
G1 X21.000 Y19.450 F1800 S80
M5
G0 X21.000 Y19.900
M4 S80
G1 X30.000 Y19.900 F1800 S80
M5
G0 X30.000 Y20.350
M4 S80
G1 X21.000 Y20.350 F1800 S80
M5
G0 X21.000 Y20.800
M4 S80
G1 X30.000 Y20.800 F1800 S80
M5
G0 X30.000 Y21.250
M4 S80
G1 X21.000 Y21.250 F1800 S80
M5
G0 X21.000 Y21.700
M4 S80
G1 X30.000 Y21.700 F1800 S80
M5
G0 X30.000 Y22.150
M4 S80
G1 X21.000 Y22.150 F1800 S80
M5
G0 X21.000 Y22.600
M4 S80
G1 X30.000 Y22.600 F1800 S80
M5
G0 X30.000 Y23.050
M4 S80
G1 X21.000 Y23.050 F1800 S80
M5
G0 X21.000 Y23.500
M4 S80
G1 X30.000 Y23.500 F1800 S80
M5
G0 X30.000 Y23.950
M4 S80
G1 X21.000 Y23.950 F1800 S80
M5
G0 X21.000 Y24.400
M4 S80
G1 X30.000 Y24.400 F1800 S80
M5
G0 X30.000 Y24.850
M4 S80
G1 X21.000 Y24.850 F1800 S80
M5
G0 X21.000 Y25.300
M4 S80
G1 X30.000 Y25.300 F1800 S80
M5
G0 X30.000 Y25.750
M4 S80
G1 X21.000 Y25.750 F1800 S80
M5
G0 X21.000 Y26.200
M4 S80
G1 X30.000 Y26.200 F1800 S80
M5
G0 X30.000 Y26.650
M4 S80
G1 X21.000 Y26.650 F1800 S80
M5
G0 X21.000 Y27.100
M4 S80
G1 X30.000 Y27.100 F1800 S80
M5
G0 X30.000 Y27.550
M4 S80
G1 X21.000 Y27.550 F1800 S80
M5
G0 X21.000 Y28.000
M4 S80
G1 X30.000 Y28.000 F1800 S80
M5
G0 X30.000 Y28.450
M4 S80
G1 X21.000 Y28.450 F1800 S80
M5
G0 X21.000 Y28.900
M4 S80
G1 X30.000 Y28.900 F1800 S80
M5
G0 X30.000 Y29.350
M4 S80
G1 X21.000 Y29.350 F1800 S80
M5
G0 X21.000 Y29.800
M4 S80
G1 X30.000 Y29.800 F1800 S80
M5
G0 X30.000 Y30.250
M4 S80
G1 X21.000 Y30.250 F1800 S80
M5
G0 X21.000 Y30.700
M4 S80
G1 X30.000 Y30.700 F1800 S80
M5
G0 X30.000 Y31.150
M4 S80
G1 X21.000 Y31.150 F1800 S80
M5
G0 X21.000 Y31.600
M4 S80
G1 X30.000 Y31.600 F1800 S80
M5
G0 X30.000 Y32.050
M4 S80
G1 X21.000 Y32.050 F1800 S80
M5
G0 X21.000 Y32.500
M4 S80
G1 X30.000 Y32.500 F1800 S80
M5
G0 X30.000 Y32.950
M4 S80
G1 X21.000 Y32.950 F1800 S80
M5
G0 X21.000 Y33.400
M4 S80
G1 X30.000 Y33.400 F1800 S80
M5
G0 X30.000 Y33.850
M4 S80
G1 X21.000 Y33.850 F1800 S80
M5
G0 X21.000 Y34.300
M4 S80
G1 X30.000 Y34.300 F1800 S80
M5
G0 X30.000 Y34.750
M4 S80
G1 X21.000 Y34.750 F1800 S80
M5
G0 X32.000 Y10.000
M4 S130
G1 X41.000 Y10.000 F1800 S130
M5
G0 X41.000 Y10.450
M4 S130
G1 X32.000 Y10.450 F1800 S130
M5
G0 X32.000 Y10.900
M4 S130
G1 X41.000 Y10.900 F1800 S130
M5
G0 X41.000 Y11.350
M4 S130
G1 X32.000 Y11.350 F1800 S130
M5
G0 X32.000 Y11.800
M4 S130
G1 X41.000 Y11.800 F1800 S130
M5
G0 X41.000 Y12.250
M4 S130
G1 X32.000 Y12.250 F1800 S130
M5
G0 X32.000 Y12.700
M4 S130
G1 X41.000 Y12.700 F1800 S130
M5
G0 X41.000 Y13.150
M4 S130
G1 X32.000 Y13.150 F1800 S130
M5
G0 X32.000 Y13.600
M4 S130
G1 X41.000 Y13.600 F1800 S130
M5
G0 X41.000 Y14.050
M4 S130
G1 X32.000 Y14.050 F1800 S130
M5
G0 X32.000 Y14.500
M4 S130
G1 X41.000 Y14.500 F1800 S130
M5
G0 X41.000 Y14.950
M4 S130
G1 X32.000 Y14.950 F1800 S130
M5
G0 X32.000 Y15.400
M4 S130
G1 X41.000 Y15.400 F1800 S130
M5
G0 X41.000 Y15.850
M4 S130
G1 X32.000 Y15.850 F1800 S130
M5
G0 X32.000 Y16.300
M4 S130
G1 X41.000 Y16.300 F1800 S130
M5
G0 X41.000 Y16.750
M4 S130
G1 X32.000 Y16.750 F1800 S130
M5
G0 X32.000 Y17.200
M4 S130
G1 X41.000 Y17.200 F1800 S130
M5
G0 X41.000 Y17.650
M4 S130
G1 X32.000 Y17.650 F1800 S130
M5
G0 X32.000 Y18.100
M4 S130
G1 X41.000 Y18.100 F1800 S130
M5
G0 X41.000 Y18.550
M4 S130
G1 X32.000 Y18.550 F1800 S130
M5
G0 X32.000 Y19.000
M4 S130
G1 X41.000 Y19.000 F1800 S130
M5
G0 X41.000 Y19.450
M4 S130
G1 X32.000 Y19.450 F1800 S130
M5
G0 X32.000 Y19.900
M4 S130
G1 X41.000 Y19.900 F1800 S130
M5
G0 X41.000 Y20.350
M4 S130
G1 X32.000 Y20.350 F1800 S130
M5
G0 X32.000 Y20.800
M4 S130
G1 X41.000 Y20.800 F1800 S130
M5
G0 X41.000 Y21.250
M4 S130
G1 X32.000 Y21.250 F1800 S130
M5
G0 X32.000 Y21.700
M4 S130
G1 X41.000 Y21.700 F1800 S130
M5
G0 X41.000 Y22.150
M4 S130
G1 X32.000 Y22.150 F1800 S130
M5
G0 X32.000 Y22.600
M4 S130
G1 X41.000 Y22.600 F1800 S130
M5
G0 X41.000 Y23.050
M4 S130
G1 X32.000 Y23.050 F1800 S130
M5
G0 X32.000 Y23.500
M4 S130
G1 X41.000 Y23.500 F1800 S130
M5
G0 X41.000 Y23.950
M4 S130
G1 X32.000 Y23.950 F1800 S130
M5
G0 X32.000 Y24.400
M4 S130
G1 X41.000 Y24.400 F1800 S130
M5
G0 X41.000 Y24.850
M4 S130
G1 X32.000 Y24.850 F1800 S130
M5
G0 X32.000 Y25.300
M4 S130
G1 X41.000 Y25.300 F1800 S130
M5
G0 X41.000 Y25.750
M4 S130
G1 X32.000 Y25.750 F1800 S130
M5
G0 X32.000 Y26.200
M4 S130
G1 X41.000 Y26.200 F1800 S130
M5
G0 X41.000 Y26.650
M4 S130
G1 X32.000 Y26.650 F1800 S130
M5
G0 X32.000 Y27.100
M4 S130
G1 X41.000 Y27.100 F1800 S130
M5
G0 X41.000 Y27.550
M4 S130
G1 X32.000 Y27.550 F1800 S130
M5
G0 X32.000 Y28.000
M4 S130
G1 X41.000 Y28.000 F1800 S130
M5
G0 X41.000 Y28.450
M4 S130
G1 X32.000 Y28.450 F1800 S130
M5
G0 X32.000 Y28.900
M4 S130
G1 X41.000 Y28.900 F1800 S130
M5
G0 X41.000 Y29.350
M4 S130
G1 X32.000 Y29.350 F1800 S130
M5
G0 X32.000 Y29.800
M4 S130
G1 X41.000 Y29.800 F1800 S130
M5
G0 X41.000 Y30.250
M4 S130
G1 X32.000 Y30.250 F1800 S130
M5
G0 X32.000 Y30.700
M4 S130
G1 X41.000 Y30.700 F1800 S130
M5
G0 X41.000 Y31.150
M4 S130
G1 X32.000 Y31.150 F1800 S130
M5
G0 X32.000 Y31.600
M4 S130
G1 X41.000 Y31.600 F1800 S130
M5
G0 X41.000 Y32.050
M4 S130
G1 X32.000 Y32.050 F1800 S130
M5
G0 X32.000 Y32.500
M4 S130
G1 X41.000 Y32.500 F1800 S130
M5
G0 X41.000 Y32.950
M4 S130
G1 X32.000 Y32.950 F1800 S130
M5
G0 X32.000 Y33.400
M4 S130
G1 X41.000 Y33.400 F1800 S130
M5
G0 X41.000 Y33.850
M4 S130
G1 X32.000 Y33.850 F1800 S130
M5
G0 X32.000 Y34.300
M4 S130
G1 X41.000 Y34.300 F1800 S130
M5
G0 X41.000 Y34.750
M4 S130
G1 X32.000 Y34.750 F1800 S130
M5
G0 X43.000 Y10.000
M4 S190
G1 X52.000 Y10.000 F1800 S190
M5
G0 X52.000 Y10.450
M4 S190
G1 X43.000 Y10.450 F1800 S190
M5
G0 X43.000 Y10.900
M4 S190
G1 X52.000 Y10.900 F1800 S190
M5
G0 X52.000 Y11.350
M4 S190
G1 X43.000 Y11.350 F1800 S190
M5
G0 X43.000 Y11.800
M4 S190
G1 X52.000 Y11.800 F1800 S190
M5
G0 X52.000 Y12.250
M4 S190
G1 X43.000 Y12.250 F1800 S190
M5
G0 X43.000 Y12.700
M4 S190
G1 X52.000 Y12.700 F1800 S190
M5
G0 X52.000 Y13.150
M4 S190
G1 X43.000 Y13.150 F1800 S190
M5
G0 X43.000 Y13.600
M4 S190
G1 X52.000 Y13.600 F1800 S190
M5
G0 X52.000 Y14.050
M4 S190
G1 X43.000 Y14.050 F1800 S190
M5
G0 X43.000 Y14.500
M4 S190
G1 X52.000 Y14.500 F1800 S190
M5
G0 X52.000 Y14.950
M4 S190
G1 X43.000 Y14.950 F1800 S190
M5
G0 X43.000 Y15.400
M4 S190
G1 X52.000 Y15.400 F1800 S190
M5
G0 X52.000 Y15.850
M4 S190
G1 X43.000 Y15.850 F1800 S190
M5
G0 X43.000 Y16.300
M4 S190
G1 X52.000 Y16.300 F1800 S190
M5
G0 X52.000 Y16.750
M4 S190
G1 X43.000 Y16.750 F1800 S190
M5
G0 X43.000 Y17.200
M4 S190
G1 X52.000 Y17.200 F1800 S190
M5
G0 X52.000 Y17.650
M4 S190
G1 X43.000 Y17.650 F1800 S190
M5
G0 X43.000 Y18.100
M4 S190
G1 X52.000 Y18.100 F1800 S190
M5
G0 X52.000 Y18.550
M4 S190
G1 X43.000 Y18.550 F1800 S190
M5
G0 X43.000 Y19.000
M4 S190
G1 X52.000 Y19.000 F1800 S190
M5
G0 X52.000 Y19.450
M4 S190
G1 X43.000 Y19.450 F1800 S190
M5
G0 X43.000 Y19.900
M4 S190
G1 X52.000 Y19.900 F1800 S190
M5
G0 X52.000 Y20.350
M4 S190
G1 X43.000 Y20.350 F1800 S190
M5
G0 X43.000 Y20.800
M4 S190
G1 X52.000 Y20.800 F1800 S190
M5
G0 X52.000 Y21.250
M4 S190
G1 X43.000 Y21.250 F1800 S190
M5
G0 X43.000 Y21.700
M4 S190
G1 X52.000 Y21.700 F1800 S190
M5
G0 X52.000 Y22.150
M4 S190
G1 X43.000 Y22.150 F1800 S190
M5
G0 X43.000 Y22.600
M4 S190
G1 X52.000 Y22.600 F1800 S190
M5
G0 X52.000 Y23.050
M4 S190
G1 X43.000 Y23.050 F1800 S190
M5
G0 X43.000 Y23.500
M4 S190
G1 X52.000 Y23.500 F1800 S190
M5
G0 X52.000 Y23.950
M4 S190
G1 X43.000 Y23.950 F1800 S190
M5
G0 X43.000 Y24.400
M4 S190
G1 X52.000 Y24.400 F1800 S190
M5
G0 X52.000 Y24.850
M4 S190
G1 X43.000 Y24.850 F1800 S190
M5
G0 X43.000 Y25.300
M4 S190
G1 X52.000 Y25.300 F1800 S190
M5
G0 X52.000 Y25.750
M4 S190
G1 X43.000 Y25.750 F1800 S190
M5
G0 X43.000 Y26.200
M4 S190
G1 X52.000 Y26.200 F1800 S190
M5
G0 X52.000 Y26.650
M4 S190
G1 X43.000 Y26.650 F1800 S190
M5
G0 X43.000 Y27.100
M4 S190
G1 X52.000 Y27.100 F1800 S190
M5
G0 X52.000 Y27.550
M4 S190
G1 X43.000 Y27.550 F1800 S190
M5
G0 X43.000 Y28.000
M4 S190
G1 X52.000 Y28.000 F1800 S190
M5
G0 X52.000 Y28.450
M4 S190
G1 X43.000 Y28.450 F1800 S190
M5
G0 X43.000 Y28.900
M4 S190
G1 X52.000 Y28.900 F1800 S190
M5
G0 X52.000 Y29.350
M4 S190
G1 X43.000 Y29.350 F1800 S190
M5
G0 X43.000 Y29.800
M4 S190
G1 X52.000 Y29.800 F1800 S190
M5
G0 X52.000 Y30.250
M4 S190
G1 X43.000 Y30.250 F1800 S190
M5
G0 X43.000 Y30.700
M4 S190
G1 X52.000 Y30.700 F1800 S190
M5
G0 X52.000 Y31.150
M4 S190
G1 X43.000 Y31.150 F1800 S190
M5
G0 X43.000 Y31.600
M4 S190
G1 X52.000 Y31.600 F1800 S190
M5
G0 X52.000 Y32.050
M4 S190
G1 X43.000 Y32.050 F1800 S190
M5
G0 X43.000 Y32.500
M4 S190
G1 X52.000 Y32.500 F1800 S190
M5
G0 X52.000 Y32.950
M4 S190
G1 X43.000 Y32.950 F1800 S190
M5
G0 X43.000 Y33.400
M4 S190
G1 X52.000 Y33.400 F1800 S190
M5
G0 X52.000 Y33.850
M4 S190
G1 X43.000 Y33.850 F1800 S190
M5
G0 X43.000 Y34.300
M4 S190
G1 X52.000 Y34.300 F1800 S190
M5
G0 X52.000 Y34.750
M4 S190
G1 X43.000 Y34.750 F1800 S190
M5
G0 X54.000 Y10.000
M4 S260
G1 X63.000 Y10.000 F1800 S260
M5
G0 X63.000 Y10.450
M4 S260
G1 X54.000 Y10.450 F1800 S260
M5
G0 X54.000 Y10.900
M4 S260
G1 X63.000 Y10.900 F1800 S260
M5
G0 X63.000 Y11.350
M4 S260
G1 X54.000 Y11.350 F1800 S260
M5
G0 X54.000 Y11.800
M4 S260
G1 X63.000 Y11.800 F1800 S260
M5
G0 X63.000 Y12.250
M4 S260
G1 X54.000 Y12.250 F1800 S260
M5
G0 X54.000 Y12.700
M4 S260
G1 X63.000 Y12.700 F1800 S260
M5
G0 X63.000 Y13.150
M4 S260
G1 X54.000 Y13.150 F1800 S260
M5
G0 X54.000 Y13.600
M4 S260
G1 X63.000 Y13.600 F1800 S260
M5
G0 X63.000 Y14.050
M4 S260
G1 X54.000 Y14.050 F1800 S260
M5
G0 X54.000 Y14.500
M4 S260
G1 X63.000 Y14.500 F1800 S260
M5
G0 X63.000 Y14.950
M4 S260
G1 X54.000 Y14.950 F1800 S260
M5
G0 X54.000 Y15.400
M4 S260
G1 X63.000 Y15.400 F1800 S260
M5
G0 X63.000 Y15.850
M4 S260
G1 X54.000 Y15.850 F1800 S260
M5
G0 X54.000 Y16.300
M4 S260
G1 X63.000 Y16.300 F1800 S260
M5
G0 X63.000 Y16.750
M4 S260
G1 X54.000 Y16.750 F1800 S260
M5
G0 X54.000 Y17.200
M4 S260
G1 X63.000 Y17.200 F1800 S260
M5
G0 X63.000 Y17.650
M4 S260
G1 X54.000 Y17.650 F1800 S260
M5
G0 X54.000 Y18.100
M4 S260
G1 X63.000 Y18.100 F1800 S260
M5
G0 X63.000 Y18.550
M4 S260
G1 X54.000 Y18.550 F1800 S260
M5
G0 X54.000 Y19.000
M4 S260
G1 X63.000 Y19.000 F1800 S260
M5
G0 X63.000 Y19.450
M4 S260
G1 X54.000 Y19.450 F1800 S260
M5
G0 X54.000 Y19.900
M4 S260
G1 X63.000 Y19.900 F1800 S260
M5
G0 X63.000 Y20.350
M4 S260
G1 X54.000 Y20.350 F1800 S260
M5
G0 X54.000 Y20.800
M4 S260
G1 X63.000 Y20.800 F1800 S260
M5
G0 X63.000 Y21.250
M4 S260
G1 X54.000 Y21.250 F1800 S260
M5
G0 X54.000 Y21.700
M4 S260
G1 X63.000 Y21.700 F1800 S260
M5
G0 X63.000 Y22.150
M4 S260
G1 X54.000 Y22.150 F1800 S260
M5
G0 X54.000 Y22.600
M4 S260
G1 X63.000 Y22.600 F1800 S260
M5
G0 X63.000 Y23.050
M4 S260
G1 X54.000 Y23.050 F1800 S260
M5
G0 X54.000 Y23.500
M4 S260
G1 X63.000 Y23.500 F1800 S260
M5
G0 X63.000 Y23.950
M4 S260
G1 X54.000 Y23.950 F1800 S260
M5
G0 X54.000 Y24.400
M4 S260
G1 X63.000 Y24.400 F1800 S260
M5
G0 X63.000 Y24.850
M4 S260
G1 X54.000 Y24.850 F1800 S260
M5
G0 X54.000 Y25.300
M4 S260
G1 X63.000 Y25.300 F1800 S260
M5
G0 X63.000 Y25.750
M4 S260
G1 X54.000 Y25.750 F1800 S260
M5
G0 X54.000 Y26.200
M4 S260
G1 X63.000 Y26.200 F1800 S260
M5
G0 X63.000 Y26.650
M4 S260
G1 X54.000 Y26.650 F1800 S260
M5
G0 X54.000 Y27.100
M4 S260
G1 X63.000 Y27.100 F1800 S260
M5
G0 X63.000 Y27.550
M4 S260
G1 X54.000 Y27.550 F1800 S260
M5
G0 X54.000 Y28.000
M4 S260
G1 X63.000 Y28.000 F1800 S260
M5
G0 X63.000 Y28.450
M4 S260
G1 X54.000 Y28.450 F1800 S260
M5
G0 X54.000 Y28.900
M4 S260
G1 X63.000 Y28.900 F1800 S260
M5
G0 X63.000 Y29.350
M4 S260
G1 X54.000 Y29.350 F1800 S260
M5
G0 X54.000 Y29.800
M4 S260
G1 X63.000 Y29.800 F1800 S260
M5
G0 X63.000 Y30.250
M4 S260
G1 X54.000 Y30.250 F1800 S260
M5
G0 X54.000 Y30.700
M4 S260
G1 X63.000 Y30.700 F1800 S260
M5
G0 X63.000 Y31.150
M4 S260
G1 X54.000 Y31.150 F1800 S260
M5
G0 X54.000 Y31.600
M4 S260
G1 X63.000 Y31.600 F1800 S260
M5
G0 X63.000 Y32.050
M4 S260
G1 X54.000 Y32.050 F1800 S260
M5
G0 X54.000 Y32.500
M4 S260
G1 X63.000 Y32.500 F1800 S260
M5
G0 X63.000 Y32.950
M4 S260
G1 X54.000 Y32.950 F1800 S260
M5
G0 X54.000 Y33.400
M4 S260
G1 X63.000 Y33.400 F1800 S260
M5
G0 X63.000 Y33.850
M4 S260
G1 X54.000 Y33.850 F1800 S260
M5
G0 X54.000 Y34.300
M4 S260
G1 X63.000 Y34.300 F1800 S260
M5
G0 X63.000 Y34.750
M4 S260
G1 X54.000 Y34.750 F1800 S260
M5
G0 X65.000 Y10.000
M4 S340
G1 X74.000 Y10.000 F1800 S340
M5
G0 X74.000 Y10.450
M4 S340
G1 X65.000 Y10.450 F1800 S340
M5
G0 X65.000 Y10.900
M4 S340
G1 X74.000 Y10.900 F1800 S340
M5
G0 X74.000 Y11.350
M4 S340
G1 X65.000 Y11.350 F1800 S340
M5
G0 X65.000 Y11.800
M4 S340
G1 X74.000 Y11.800 F1800 S340
M5
G0 X74.000 Y12.250
M4 S340
G1 X65.000 Y12.250 F1800 S340
M5
G0 X65.000 Y12.700
M4 S340
G1 X74.000 Y12.700 F1800 S340
M5
G0 X74.000 Y13.150
M4 S340
G1 X65.000 Y13.150 F1800 S340
M5
G0 X65.000 Y13.600
M4 S340
G1 X74.000 Y13.600 F1800 S340
M5
G0 X74.000 Y14.050
M4 S340
G1 X65.000 Y14.050 F1800 S340
M5
G0 X65.000 Y14.500
M4 S340
G1 X74.000 Y14.500 F1800 S340
M5
G0 X74.000 Y14.950
M4 S340
G1 X65.000 Y14.950 F1800 S340
M5
G0 X65.000 Y15.400
M4 S340
G1 X74.000 Y15.400 F1800 S340
M5
G0 X74.000 Y15.850
M4 S340
G1 X65.000 Y15.850 F1800 S340
M5
G0 X65.000 Y16.300
M4 S340
G1 X74.000 Y16.300 F1800 S340
M5
G0 X74.000 Y16.750
M4 S340
G1 X65.000 Y16.750 F1800 S340
M5
G0 X65.000 Y17.200
M4 S340
G1 X74.000 Y17.200 F1800 S340
M5
G0 X74.000 Y17.650
M4 S340
G1 X65.000 Y17.650 F1800 S340
M5
G0 X65.000 Y18.100
M4 S340
G1 X74.000 Y18.100 F1800 S340
M5
G0 X74.000 Y18.550
M4 S340
G1 X65.000 Y18.550 F1800 S340
M5
G0 X65.000 Y19.000
M4 S340
G1 X74.000 Y19.000 F1800 S340
M5
G0 X74.000 Y19.450
M4 S340
G1 X65.000 Y19.450 F1800 S340
M5
G0 X65.000 Y19.900
M4 S340
G1 X74.000 Y19.900 F1800 S340
M5
G0 X74.000 Y20.350
M4 S340
G1 X65.000 Y20.350 F1800 S340
M5
G0 X65.000 Y20.800
M4 S340
G1 X74.000 Y20.800 F1800 S340
M5
G0 X74.000 Y21.250
M4 S340
G1 X65.000 Y21.250 F1800 S340
M5
G0 X65.000 Y21.700
M4 S340
G1 X74.000 Y21.700 F1800 S340
M5
G0 X74.000 Y22.150
M4 S340
G1 X65.000 Y22.150 F1800 S340
M5
G0 X65.000 Y22.600
M4 S340
G1 X74.000 Y22.600 F1800 S340
M5
G0 X74.000 Y23.050
M4 S340
G1 X65.000 Y23.050 F1800 S340
M5
G0 X65.000 Y23.500
M4 S340
G1 X74.000 Y23.500 F1800 S340
M5
G0 X74.000 Y23.950
M4 S340
G1 X65.000 Y23.950 F1800 S340
M5
G0 X65.000 Y24.400
M4 S340
G1 X74.000 Y24.400 F1800 S340
M5
G0 X74.000 Y24.850
M4 S340
G1 X65.000 Y24.850 F1800 S340
M5
G0 X65.000 Y25.300
M4 S340
G1 X74.000 Y25.300 F1800 S340
M5
G0 X74.000 Y25.750
M4 S340
G1 X65.000 Y25.750 F1800 S340
M5
G0 X65.000 Y26.200
M4 S340
G1 X74.000 Y26.200 F1800 S340
M5
G0 X74.000 Y26.650
M4 S340
G1 X65.000 Y26.650 F1800 S340
M5
G0 X65.000 Y27.100
M4 S340
G1 X74.000 Y27.100 F1800 S340
M5
G0 X74.000 Y27.550
M4 S340
G1 X65.000 Y27.550 F1800 S340
M5
G0 X65.000 Y28.000
M4 S340
G1 X74.000 Y28.000 F1800 S340
M5
G0 X74.000 Y28.450
M4 S340
G1 X65.000 Y28.450 F1800 S340
M5
G0 X65.000 Y28.900
M4 S340
G1 X74.000 Y28.900 F1800 S340
M5
G0 X74.000 Y29.350
M4 S340
G1 X65.000 Y29.350 F1800 S340
M5
G0 X65.000 Y29.800
M4 S340
G1 X74.000 Y29.800 F1800 S340
M5
G0 X74.000 Y30.250
M4 S340
G1 X65.000 Y30.250 F1800 S340
M5
G0 X65.000 Y30.700
M4 S340
G1 X74.000 Y30.700 F1800 S340
M5
G0 X74.000 Y31.150
M4 S340
G1 X65.000 Y31.150 F1800 S340
M5
G0 X65.000 Y31.600
M4 S340
G1 X74.000 Y31.600 F1800 S340
M5
G0 X74.000 Y32.050
M4 S340
G1 X65.000 Y32.050 F1800 S340
M5
G0 X65.000 Y32.500
M4 S340
G1 X74.000 Y32.500 F1800 S340
M5
G0 X74.000 Y32.950
M4 S340
G1 X65.000 Y32.950 F1800 S340
M5
G0 X65.000 Y33.400
M4 S340
G1 X74.000 Y33.400 F1800 S340
M5
G0 X74.000 Y33.850
M4 S340
G1 X65.000 Y33.850 F1800 S340
M5
G0 X65.000 Y34.300
M4 S340
G1 X74.000 Y34.300 F1800 S340
M5
G0 X74.000 Y34.750
M4 S340
G1 X65.000 Y34.750 F1800 S340
M5
G0 X76.000 Y10.000
M4 S430
G1 X85.000 Y10.000 F1800 S430
M5
G0 X85.000 Y10.450
M4 S430
G1 X76.000 Y10.450 F1800 S430
M5
G0 X76.000 Y10.900
M4 S430
G1 X85.000 Y10.900 F1800 S430
M5
G0 X85.000 Y11.350
M4 S430
G1 X76.000 Y11.350 F1800 S430
M5
G0 X76.000 Y11.800
M4 S430
G1 X85.000 Y11.800 F1800 S430
M5
G0 X85.000 Y12.250
M4 S430
G1 X76.000 Y12.250 F1800 S430
M5
G0 X76.000 Y12.700
M4 S430
G1 X85.000 Y12.700 F1800 S430
M5
G0 X85.000 Y13.150
M4 S430
G1 X76.000 Y13.150 F1800 S430
M5
G0 X76.000 Y13.600
M4 S430
G1 X85.000 Y13.600 F1800 S430
M5
G0 X85.000 Y14.050
M4 S430
G1 X76.000 Y14.050 F1800 S430
M5
G0 X76.000 Y14.500
M4 S430
G1 X85.000 Y14.500 F1800 S430
M5
G0 X85.000 Y14.950
M4 S430
G1 X76.000 Y14.950 F1800 S430
M5
G0 X76.000 Y15.400
M4 S430
G1 X85.000 Y15.400 F1800 S430
M5
G0 X85.000 Y15.850
M4 S430
G1 X76.000 Y15.850 F1800 S430
M5
G0 X76.000 Y16.300
M4 S430
G1 X85.000 Y16.300 F1800 S430
M5
G0 X85.000 Y16.750
M4 S430
G1 X76.000 Y16.750 F1800 S430
M5
G0 X76.000 Y17.200
M4 S430
G1 X85.000 Y17.200 F1800 S430
M5
G0 X85.000 Y17.650
M4 S430
G1 X76.000 Y17.650 F1800 S430
M5
G0 X76.000 Y18.100
M4 S430
G1 X85.000 Y18.100 F1800 S430
M5
G0 X85.000 Y18.550
M4 S430
G1 X76.000 Y18.550 F1800 S430
M5
G0 X76.000 Y19.000
M4 S430
G1 X85.000 Y19.000 F1800 S430
M5
G0 X85.000 Y19.450
M4 S430
G1 X76.000 Y19.450 F1800 S430
M5
G0 X76.000 Y19.900
M4 S430
G1 X85.000 Y19.900 F1800 S430
M5
G0 X85.000 Y20.350
M4 S430
G1 X76.000 Y20.350 F1800 S430
M5
G0 X76.000 Y20.800
M4 S430
G1 X85.000 Y20.800 F1800 S430
M5
G0 X85.000 Y21.250
M4 S430
G1 X76.000 Y21.250 F1800 S430
M5
G0 X76.000 Y21.700
M4 S430
G1 X85.000 Y21.700 F1800 S430
M5
G0 X85.000 Y22.150
M4 S430
G1 X76.000 Y22.150 F1800 S430
M5
G0 X76.000 Y22.600
M4 S430
G1 X85.000 Y22.600 F1800 S430
M5
G0 X85.000 Y23.050
M4 S430
G1 X76.000 Y23.050 F1800 S430
M5
G0 X76.000 Y23.500
M4 S430
G1 X85.000 Y23.500 F1800 S430
M5
G0 X85.000 Y23.950
M4 S430
G1 X76.000 Y23.950 F1800 S430
M5
G0 X76.000 Y24.400
M4 S430
G1 X85.000 Y24.400 F1800 S430
M5
G0 X85.000 Y24.850
M4 S430
G1 X76.000 Y24.850 F1800 S430
M5
G0 X76.000 Y25.300
M4 S430
G1 X85.000 Y25.300 F1800 S430
M5
G0 X85.000 Y25.750
M4 S430
G1 X76.000 Y25.750 F1800 S430
M5
G0 X76.000 Y26.200
M4 S430
G1 X85.000 Y26.200 F1800 S430
M5
G0 X85.000 Y26.650
M4 S430
G1 X76.000 Y26.650 F1800 S430
M5
G0 X76.000 Y27.100
M4 S430
G1 X85.000 Y27.100 F1800 S430
M5
G0 X85.000 Y27.550
M4 S430
G1 X76.000 Y27.550 F1800 S430
M5
G0 X76.000 Y28.000
M4 S430
G1 X85.000 Y28.000 F1800 S430
M5
G0 X85.000 Y28.450
M4 S430
G1 X76.000 Y28.450 F1800 S430
M5
G0 X76.000 Y28.900
M4 S430
G1 X85.000 Y28.900 F1800 S430
M5
G0 X85.000 Y29.350
M4 S430
G1 X76.000 Y29.350 F1800 S430
M5
G0 X76.000 Y29.800
M4 S430
G1 X85.000 Y29.800 F1800 S430
M5
G0 X85.000 Y30.250
M4 S430
G1 X76.000 Y30.250 F1800 S430
M5
G0 X76.000 Y30.700
M4 S430
G1 X85.000 Y30.700 F1800 S430
M5
G0 X85.000 Y31.150
M4 S430
G1 X76.000 Y31.150 F1800 S430
M5
G0 X76.000 Y31.600
M4 S430
G1 X85.000 Y31.600 F1800 S430
M5
G0 X85.000 Y32.050
M4 S430
G1 X76.000 Y32.050 F1800 S430
M5
G0 X76.000 Y32.500
M4 S430
G1 X85.000 Y32.500 F1800 S430
M5
G0 X85.000 Y32.950
M4 S430
G1 X76.000 Y32.950 F1800 S430
M5
G0 X76.000 Y33.400
M4 S430
G1 X85.000 Y33.400 F1800 S430
M5
G0 X85.000 Y33.850
M4 S430
G1 X76.000 Y33.850 F1800 S430
M5
G0 X76.000 Y34.300
M4 S430
G1 X85.000 Y34.300 F1800 S430
M5
G0 X85.000 Y34.750
M4 S430
G1 X76.000 Y34.750 F1800 S430
M5
G0 X87.000 Y10.000
M4 S540
G1 X96.000 Y10.000 F1800 S540
M5
G0 X96.000 Y10.450
M4 S540
G1 X87.000 Y10.450 F1800 S540
M5
G0 X87.000 Y10.900
M4 S540
G1 X96.000 Y10.900 F1800 S540
M5
G0 X96.000 Y11.350
M4 S540
G1 X87.000 Y11.350 F1800 S540
M5
G0 X87.000 Y11.800
M4 S540
G1 X96.000 Y11.800 F1800 S540
M5
G0 X96.000 Y12.250
M4 S540
G1 X87.000 Y12.250 F1800 S540
M5
G0 X87.000 Y12.700
M4 S540
G1 X96.000 Y12.700 F1800 S540
M5
G0 X96.000 Y13.150
M4 S540
G1 X87.000 Y13.150 F1800 S540
M5
G0 X87.000 Y13.600
M4 S540
G1 X96.000 Y13.600 F1800 S540
M5
G0 X96.000 Y14.050
M4 S540
G1 X87.000 Y14.050 F1800 S540
M5
G0 X87.000 Y14.500
M4 S540
G1 X96.000 Y14.500 F1800 S540
M5
G0 X96.000 Y14.950
M4 S540
G1 X87.000 Y14.950 F1800 S540
M5
G0 X87.000 Y15.400
M4 S540
G1 X96.000 Y15.400 F1800 S540
M5
G0 X96.000 Y15.850
M4 S540
G1 X87.000 Y15.850 F1800 S540
M5
G0 X87.000 Y16.300
M4 S540
G1 X96.000 Y16.300 F1800 S540
M5
G0 X96.000 Y16.750
M4 S540
G1 X87.000 Y16.750 F1800 S540
M5
G0 X87.000 Y17.200
M4 S540
G1 X96.000 Y17.200 F1800 S540
M5
G0 X96.000 Y17.650
M4 S540
G1 X87.000 Y17.650 F1800 S540
M5
G0 X87.000 Y18.100
M4 S540
G1 X96.000 Y18.100 F1800 S540
M5
G0 X96.000 Y18.550
M4 S540
G1 X87.000 Y18.550 F1800 S540
M5
G0 X87.000 Y19.000
M4 S540
G1 X96.000 Y19.000 F1800 S540
M5
G0 X96.000 Y19.450
M4 S540
G1 X87.000 Y19.450 F1800 S540
M5
G0 X87.000 Y19.900
M4 S540
G1 X96.000 Y19.900 F1800 S540
M5
G0 X96.000 Y20.350
M4 S540
G1 X87.000 Y20.350 F1800 S540
M5
G0 X87.000 Y20.800
M4 S540
G1 X96.000 Y20.800 F1800 S540
M5
G0 X96.000 Y21.250
M4 S540
G1 X87.000 Y21.250 F1800 S540
M5
G0 X87.000 Y21.700
M4 S540
G1 X96.000 Y21.700 F1800 S540
M5
G0 X96.000 Y22.150
M4 S540
G1 X87.000 Y22.150 F1800 S540
M5
G0 X87.000 Y22.600
M4 S540
G1 X96.000 Y22.600 F1800 S540
M5
G0 X96.000 Y23.050
M4 S540
G1 X87.000 Y23.050 F1800 S540
M5
G0 X87.000 Y23.500
M4 S540
G1 X96.000 Y23.500 F1800 S540
M5
G0 X96.000 Y23.950
M4 S540
G1 X87.000 Y23.950 F1800 S540
M5
G0 X87.000 Y24.400
M4 S540
G1 X96.000 Y24.400 F1800 S540
M5
G0 X96.000 Y24.850
M4 S540
G1 X87.000 Y24.850 F1800 S540
M5
G0 X87.000 Y25.300
M4 S540
G1 X96.000 Y25.300 F1800 S540
M5
G0 X96.000 Y25.750
M4 S540
G1 X87.000 Y25.750 F1800 S540
M5
G0 X87.000 Y26.200
M4 S540
G1 X96.000 Y26.200 F1800 S540
M5
G0 X96.000 Y26.650
M4 S540
G1 X87.000 Y26.650 F1800 S540
M5
G0 X87.000 Y27.100
M4 S540
G1 X96.000 Y27.100 F1800 S540
M5
G0 X96.000 Y27.550
M4 S540
G1 X87.000 Y27.550 F1800 S540
M5
G0 X87.000 Y28.000
M4 S540
G1 X96.000 Y28.000 F1800 S540
M5
G0 X96.000 Y28.450
M4 S540
G1 X87.000 Y28.450 F1800 S540
M5
G0 X87.000 Y28.900
M4 S540
G1 X96.000 Y28.900 F1800 S540
M5
G0 X96.000 Y29.350
M4 S540
G1 X87.000 Y29.350 F1800 S540
M5
G0 X87.000 Y29.800
M4 S540
G1 X96.000 Y29.800 F1800 S540
M5
G0 X96.000 Y30.250
M4 S540
G1 X87.000 Y30.250 F1800 S540
M5
G0 X87.000 Y30.700
M4 S540
G1 X96.000 Y30.700 F1800 S540
M5
G0 X96.000 Y31.150
M4 S540
G1 X87.000 Y31.150 F1800 S540
M5
G0 X87.000 Y31.600
M4 S540
G1 X96.000 Y31.600 F1800 S540
M5
G0 X96.000 Y32.050
M4 S540
G1 X87.000 Y32.050 F1800 S540
M5
G0 X87.000 Y32.500
M4 S540
G1 X96.000 Y32.500 F1800 S540
M5
G0 X96.000 Y32.950
M4 S540
G1 X87.000 Y32.950 F1800 S540
M5
G0 X87.000 Y33.400
M4 S540
G1 X96.000 Y33.400 F1800 S540
M5
G0 X96.000 Y33.850
M4 S540
G1 X87.000 Y33.850 F1800 S540
M5
G0 X87.000 Y34.300
M4 S540
G1 X96.000 Y34.300 F1800 S540
M5
G0 X96.000 Y34.750
M4 S540
G1 X87.000 Y34.750 F1800 S540
M5
M5
M9
G0 X0 Y0
; End
