; LT-20W-A line-art badge
; Generated by Codex Laser Engraver
G21
G90
G94
M5
; Simple vector badge for confirming motion, PWM, and line quality.
G0 X12.000 Y30.000
M4 S260
G1 X30.000 Y10.000 F1800 S260
G1 X58.000 Y10.000 F1800 S260
G1 X76.000 Y30.000 F1800 S260
G1 X58.000 Y50.000 F1800 S260
G1 X30.000 Y50.000 F1800 S260
G1 X12.000 Y30.000 F1800 S260
M5
G0 X24.000 Y30.000
M4 S260
G1 X36.000 Y20.000 F1800 S260
G1 X52.000 Y20.000 F1800 S260
G1 X64.000 Y30.000 F1800 S260
G1 X52.000 Y40.000 F1800 S260
G1 X36.000 Y40.000 F1800 S260
G1 X24.000 Y30.000 F1800 S260
M5
G0 X36.000 Y30.000
M4 S260
G1 X52.000 Y30.000 F1800 S260
M5
G0 X44.000 Y22.000
M4 S260
G1 X44.000 Y38.000 F1800 S260
M5
M5
M9
G0 X0 Y0
; End
