; LT-20W-A power and speed grid
; Generated by Codex Laser Engraver
G21
G90
G94
M5
; Conservative engraving sampler for light wood/cardboard.
; Cell row feed 600 mm/min, power S80
G0 X12.000 Y12.000
M4 S80
G1 X20.000 Y12.000 F600 S80
M5
G0 X20.000 Y12.550
M4 S80
G1 X12.000 Y12.550 F600 S80
M5
G0 X12.000 Y13.100
M4 S80
G1 X20.000 Y13.100 F600 S80
M5
G0 X20.000 Y13.650
M4 S80
G1 X12.000 Y13.650 F600 S80
M5
G0 X12.000 Y14.200
M4 S80
G1 X20.000 Y14.200 F600 S80
M5
G0 X20.000 Y14.750
M4 S80
G1 X12.000 Y14.750 F600 S80
M5
G0 X12.000 Y15.300
M4 S80
G1 X20.000 Y15.300 F600 S80
M5
G0 X20.000 Y15.850
M4 S80
G1 X12.000 Y15.850 F600 S80
M5
G0 X12.000 Y16.400
M4 S80
G1 X20.000 Y16.400 F600 S80
M5
G0 X20.000 Y16.950
M4 S80
G1 X12.000 Y16.950 F600 S80
M5
G0 X12.000 Y17.500
M4 S80
G1 X20.000 Y17.500 F600 S80
M5
G0 X20.000 Y18.050
M4 S80
G1 X12.000 Y18.050 F600 S80
M5
G0 X12.000 Y18.600
M4 S80
G1 X20.000 Y18.600 F600 S80
M5
G0 X20.000 Y19.150
M4 S80
G1 X12.000 Y19.150 F600 S80
M5
G0 X12.000 Y19.700
M4 S80
G1 X20.000 Y19.700 F600 S80
M5
; Cell row feed 600 mm/min, power S140
G0 X23.000 Y12.000
M4 S140
G1 X31.000 Y12.000 F600 S140
M5
G0 X31.000 Y12.550
M4 S140
G1 X23.000 Y12.550 F600 S140
M5
G0 X23.000 Y13.100
M4 S140
G1 X31.000 Y13.100 F600 S140
M5
G0 X31.000 Y13.650
M4 S140
G1 X23.000 Y13.650 F600 S140
M5
G0 X23.000 Y14.200
M4 S140
G1 X31.000 Y14.200 F600 S140
M5
G0 X31.000 Y14.750
M4 S140
G1 X23.000 Y14.750 F600 S140
M5
G0 X23.000 Y15.300
M4 S140
G1 X31.000 Y15.300 F600 S140
M5
G0 X31.000 Y15.850
M4 S140
G1 X23.000 Y15.850 F600 S140
M5
G0 X23.000 Y16.400
M4 S140
G1 X31.000 Y16.400 F600 S140
M5
G0 X31.000 Y16.950
M4 S140
G1 X23.000 Y16.950 F600 S140
M5
G0 X23.000 Y17.500
M4 S140
G1 X31.000 Y17.500 F600 S140
M5
G0 X31.000 Y18.050
M4 S140
G1 X23.000 Y18.050 F600 S140
M5
G0 X23.000 Y18.600
M4 S140
G1 X31.000 Y18.600 F600 S140
M5
G0 X31.000 Y19.150
M4 S140
G1 X23.000 Y19.150 F600 S140
M5
G0 X23.000 Y19.700
M4 S140
G1 X31.000 Y19.700 F600 S140
M5
; Cell row feed 600 mm/min, power S220
G0 X34.000 Y12.000
M4 S220
G1 X42.000 Y12.000 F600 S220
M5
G0 X42.000 Y12.550
M4 S220
G1 X34.000 Y12.550 F600 S220
M5
G0 X34.000 Y13.100
M4 S220
G1 X42.000 Y13.100 F600 S220
M5
G0 X42.000 Y13.650
M4 S220
G1 X34.000 Y13.650 F600 S220
M5
G0 X34.000 Y14.200
M4 S220
G1 X42.000 Y14.200 F600 S220
M5
G0 X42.000 Y14.750
M4 S220
G1 X34.000 Y14.750 F600 S220
M5
G0 X34.000 Y15.300
M4 S220
G1 X42.000 Y15.300 F600 S220
M5
G0 X42.000 Y15.850
M4 S220
G1 X34.000 Y15.850 F600 S220
M5
G0 X34.000 Y16.400
M4 S220
G1 X42.000 Y16.400 F600 S220
M5
G0 X42.000 Y16.950
M4 S220
G1 X34.000 Y16.950 F600 S220
M5
G0 X34.000 Y17.500
M4 S220
G1 X42.000 Y17.500 F600 S220
M5
G0 X42.000 Y18.050
M4 S220
G1 X34.000 Y18.050 F600 S220
M5
G0 X34.000 Y18.600
M4 S220
G1 X42.000 Y18.600 F600 S220
M5
G0 X42.000 Y19.150
M4 S220
G1 X34.000 Y19.150 F600 S220
M5
G0 X34.000 Y19.700
M4 S220
G1 X42.000 Y19.700 F600 S220
M5
; Cell row feed 600 mm/min, power S320
G0 X45.000 Y12.000
M4 S320
G1 X53.000 Y12.000 F600 S320
M5
G0 X53.000 Y12.550
M4 S320
G1 X45.000 Y12.550 F600 S320
M5
G0 X45.000 Y13.100
M4 S320
G1 X53.000 Y13.100 F600 S320
M5
G0 X53.000 Y13.650
M4 S320
G1 X45.000 Y13.650 F600 S320
M5
G0 X45.000 Y14.200
M4 S320
G1 X53.000 Y14.200 F600 S320
M5
G0 X53.000 Y14.750
M4 S320
G1 X45.000 Y14.750 F600 S320
M5
G0 X45.000 Y15.300
M4 S320
G1 X53.000 Y15.300 F600 S320
M5
G0 X53.000 Y15.850
M4 S320
G1 X45.000 Y15.850 F600 S320
M5
G0 X45.000 Y16.400
M4 S320
G1 X53.000 Y16.400 F600 S320
M5
G0 X53.000 Y16.950
M4 S320
G1 X45.000 Y16.950 F600 S320
M5
G0 X45.000 Y17.500
M4 S320
G1 X53.000 Y17.500 F600 S320
M5
G0 X53.000 Y18.050
M4 S320
G1 X45.000 Y18.050 F600 S320
M5
G0 X45.000 Y18.600
M4 S320
G1 X53.000 Y18.600 F600 S320
M5
G0 X53.000 Y19.150
M4 S320
G1 X45.000 Y19.150 F600 S320
M5
G0 X45.000 Y19.700
M4 S320
G1 X53.000 Y19.700 F600 S320
M5
; Cell row feed 600 mm/min, power S430
G0 X56.000 Y12.000
M4 S430
G1 X64.000 Y12.000 F600 S430
M5
G0 X64.000 Y12.550
M4 S430
G1 X56.000 Y12.550 F600 S430
M5
G0 X56.000 Y13.100
M4 S430
G1 X64.000 Y13.100 F600 S430
M5
G0 X64.000 Y13.650
M4 S430
G1 X56.000 Y13.650 F600 S430
M5
G0 X56.000 Y14.200
M4 S430
G1 X64.000 Y14.200 F600 S430
M5
G0 X64.000 Y14.750
M4 S430
G1 X56.000 Y14.750 F600 S430
M5
G0 X56.000 Y15.300
M4 S430
G1 X64.000 Y15.300 F600 S430
M5
G0 X64.000 Y15.850
M4 S430
G1 X56.000 Y15.850 F600 S430
M5
G0 X56.000 Y16.400
M4 S430
G1 X64.000 Y16.400 F600 S430
M5
G0 X64.000 Y16.950
M4 S430
G1 X56.000 Y16.950 F600 S430
M5
G0 X56.000 Y17.500
M4 S430
G1 X64.000 Y17.500 F600 S430
M5
G0 X64.000 Y18.050
M4 S430
G1 X56.000 Y18.050 F600 S430
M5
G0 X56.000 Y18.600
M4 S430
G1 X64.000 Y18.600 F600 S430
M5
G0 X64.000 Y19.150
M4 S430
G1 X56.000 Y19.150 F600 S430
M5
G0 X56.000 Y19.700
M4 S430
G1 X64.000 Y19.700 F600 S430
M5
; Cell row feed 1000 mm/min, power S80
G0 X12.000 Y23.000
M4 S80
G1 X20.000 Y23.000 F1000 S80
M5
G0 X20.000 Y23.550
M4 S80
G1 X12.000 Y23.550 F1000 S80
M5
G0 X12.000 Y24.100
M4 S80
G1 X20.000 Y24.100 F1000 S80
M5
G0 X20.000 Y24.650
M4 S80
G1 X12.000 Y24.650 F1000 S80
M5
G0 X12.000 Y25.200
M4 S80
G1 X20.000 Y25.200 F1000 S80
M5
G0 X20.000 Y25.750
M4 S80
G1 X12.000 Y25.750 F1000 S80
M5
G0 X12.000 Y26.300
M4 S80
G1 X20.000 Y26.300 F1000 S80
M5
G0 X20.000 Y26.850
M4 S80
G1 X12.000 Y26.850 F1000 S80
M5
G0 X12.000 Y27.400
M4 S80
G1 X20.000 Y27.400 F1000 S80
M5
G0 X20.000 Y27.950
M4 S80
G1 X12.000 Y27.950 F1000 S80
M5
G0 X12.000 Y28.500
M4 S80
G1 X20.000 Y28.500 F1000 S80
M5
G0 X20.000 Y29.050
M4 S80
G1 X12.000 Y29.050 F1000 S80
M5
G0 X12.000 Y29.600
M4 S80
G1 X20.000 Y29.600 F1000 S80
M5
G0 X20.000 Y30.150
M4 S80
G1 X12.000 Y30.150 F1000 S80
M5
G0 X12.000 Y30.700
M4 S80
G1 X20.000 Y30.700 F1000 S80
M5
; Cell row feed 1000 mm/min, power S140
G0 X23.000 Y23.000
M4 S140
G1 X31.000 Y23.000 F1000 S140
M5
G0 X31.000 Y23.550
M4 S140
G1 X23.000 Y23.550 F1000 S140
M5
G0 X23.000 Y24.100
M4 S140
G1 X31.000 Y24.100 F1000 S140
M5
G0 X31.000 Y24.650
M4 S140
G1 X23.000 Y24.650 F1000 S140
M5
G0 X23.000 Y25.200
M4 S140
G1 X31.000 Y25.200 F1000 S140
M5
G0 X31.000 Y25.750
M4 S140
G1 X23.000 Y25.750 F1000 S140
M5
G0 X23.000 Y26.300
M4 S140
G1 X31.000 Y26.300 F1000 S140
M5
G0 X31.000 Y26.850
M4 S140
G1 X23.000 Y26.850 F1000 S140
M5
G0 X23.000 Y27.400
M4 S140
G1 X31.000 Y27.400 F1000 S140
M5
G0 X31.000 Y27.950
M4 S140
G1 X23.000 Y27.950 F1000 S140
M5
G0 X23.000 Y28.500
M4 S140
G1 X31.000 Y28.500 F1000 S140
M5
G0 X31.000 Y29.050
M4 S140
G1 X23.000 Y29.050 F1000 S140
M5
G0 X23.000 Y29.600
M4 S140
G1 X31.000 Y29.600 F1000 S140
M5
G0 X31.000 Y30.150
M4 S140
G1 X23.000 Y30.150 F1000 S140
M5
G0 X23.000 Y30.700
M4 S140
G1 X31.000 Y30.700 F1000 S140
M5
; Cell row feed 1000 mm/min, power S220
G0 X34.000 Y23.000
M4 S220
G1 X42.000 Y23.000 F1000 S220
M5
G0 X42.000 Y23.550
M4 S220
G1 X34.000 Y23.550 F1000 S220
M5
G0 X34.000 Y24.100
M4 S220
G1 X42.000 Y24.100 F1000 S220
M5
G0 X42.000 Y24.650
M4 S220
G1 X34.000 Y24.650 F1000 S220
M5
G0 X34.000 Y25.200
M4 S220
G1 X42.000 Y25.200 F1000 S220
M5
G0 X42.000 Y25.750
M4 S220
G1 X34.000 Y25.750 F1000 S220
M5
G0 X34.000 Y26.300
M4 S220
G1 X42.000 Y26.300 F1000 S220
M5
G0 X42.000 Y26.850
M4 S220
G1 X34.000 Y26.850 F1000 S220
M5
G0 X34.000 Y27.400
M4 S220
G1 X42.000 Y27.400 F1000 S220
M5
G0 X42.000 Y27.950
M4 S220
G1 X34.000 Y27.950 F1000 S220
M5
G0 X34.000 Y28.500
M4 S220
G1 X42.000 Y28.500 F1000 S220
M5
G0 X42.000 Y29.050
M4 S220
G1 X34.000 Y29.050 F1000 S220
M5
G0 X34.000 Y29.600
M4 S220
G1 X42.000 Y29.600 F1000 S220
M5
G0 X42.000 Y30.150
M4 S220
G1 X34.000 Y30.150 F1000 S220
M5
G0 X34.000 Y30.700
M4 S220
G1 X42.000 Y30.700 F1000 S220
M5
; Cell row feed 1000 mm/min, power S320
G0 X45.000 Y23.000
M4 S320
G1 X53.000 Y23.000 F1000 S320
M5
G0 X53.000 Y23.550
M4 S320
G1 X45.000 Y23.550 F1000 S320
M5
G0 X45.000 Y24.100
M4 S320
G1 X53.000 Y24.100 F1000 S320
M5
G0 X53.000 Y24.650
M4 S320
G1 X45.000 Y24.650 F1000 S320
M5
G0 X45.000 Y25.200
M4 S320
G1 X53.000 Y25.200 F1000 S320
M5
G0 X53.000 Y25.750
M4 S320
G1 X45.000 Y25.750 F1000 S320
M5
G0 X45.000 Y26.300
M4 S320
G1 X53.000 Y26.300 F1000 S320
M5
G0 X53.000 Y26.850
M4 S320
G1 X45.000 Y26.850 F1000 S320
M5
G0 X45.000 Y27.400
M4 S320
G1 X53.000 Y27.400 F1000 S320
M5
G0 X53.000 Y27.950
M4 S320
G1 X45.000 Y27.950 F1000 S320
M5
G0 X45.000 Y28.500
M4 S320
G1 X53.000 Y28.500 F1000 S320
M5
G0 X53.000 Y29.050
M4 S320
G1 X45.000 Y29.050 F1000 S320
M5
G0 X45.000 Y29.600
M4 S320
G1 X53.000 Y29.600 F1000 S320
M5
G0 X53.000 Y30.150
M4 S320
G1 X45.000 Y30.150 F1000 S320
M5
G0 X45.000 Y30.700
M4 S320
G1 X53.000 Y30.700 F1000 S320
M5
; Cell row feed 1000 mm/min, power S430
G0 X56.000 Y23.000
M4 S430
G1 X64.000 Y23.000 F1000 S430
M5
G0 X64.000 Y23.550
M4 S430
G1 X56.000 Y23.550 F1000 S430
M5
G0 X56.000 Y24.100
M4 S430
G1 X64.000 Y24.100 F1000 S430
M5
G0 X64.000 Y24.650
M4 S430
G1 X56.000 Y24.650 F1000 S430
M5
G0 X56.000 Y25.200
M4 S430
G1 X64.000 Y25.200 F1000 S430
M5
G0 X64.000 Y25.750
M4 S430
G1 X56.000 Y25.750 F1000 S430
M5
G0 X56.000 Y26.300
M4 S430
G1 X64.000 Y26.300 F1000 S430
M5
G0 X64.000 Y26.850
M4 S430
G1 X56.000 Y26.850 F1000 S430
M5
G0 X56.000 Y27.400
M4 S430
G1 X64.000 Y27.400 F1000 S430
M5
G0 X64.000 Y27.950
M4 S430
G1 X56.000 Y27.950 F1000 S430
M5
G0 X56.000 Y28.500
M4 S430
G1 X64.000 Y28.500 F1000 S430
M5
G0 X64.000 Y29.050
M4 S430
G1 X56.000 Y29.050 F1000 S430
M5
G0 X56.000 Y29.600
M4 S430
G1 X64.000 Y29.600 F1000 S430
M5
G0 X64.000 Y30.150
M4 S430
G1 X56.000 Y30.150 F1000 S430
M5
G0 X56.000 Y30.700
M4 S430
G1 X64.000 Y30.700 F1000 S430
M5
; Cell row feed 1600 mm/min, power S80
G0 X12.000 Y34.000
M4 S80
G1 X20.000 Y34.000 F1600 S80
M5
G0 X20.000 Y34.550
M4 S80
G1 X12.000 Y34.550 F1600 S80
M5
G0 X12.000 Y35.100
M4 S80
G1 X20.000 Y35.100 F1600 S80
M5
G0 X20.000 Y35.650
M4 S80
G1 X12.000 Y35.650 F1600 S80
M5
G0 X12.000 Y36.200
M4 S80
G1 X20.000 Y36.200 F1600 S80
M5
G0 X20.000 Y36.750
M4 S80
G1 X12.000 Y36.750 F1600 S80
M5
G0 X12.000 Y37.300
M4 S80
G1 X20.000 Y37.300 F1600 S80
M5
G0 X20.000 Y37.850
M4 S80
G1 X12.000 Y37.850 F1600 S80
M5
G0 X12.000 Y38.400
M4 S80
G1 X20.000 Y38.400 F1600 S80
M5
G0 X20.000 Y38.950
M4 S80
G1 X12.000 Y38.950 F1600 S80
M5
G0 X12.000 Y39.500
M4 S80
G1 X20.000 Y39.500 F1600 S80
M5
G0 X20.000 Y40.050
M4 S80
G1 X12.000 Y40.050 F1600 S80
M5
G0 X12.000 Y40.600
M4 S80
G1 X20.000 Y40.600 F1600 S80
M5
G0 X20.000 Y41.150
M4 S80
G1 X12.000 Y41.150 F1600 S80
M5
G0 X12.000 Y41.700
M4 S80
G1 X20.000 Y41.700 F1600 S80
M5
; Cell row feed 1600 mm/min, power S140
G0 X23.000 Y34.000
M4 S140
G1 X31.000 Y34.000 F1600 S140
M5
G0 X31.000 Y34.550
M4 S140
G1 X23.000 Y34.550 F1600 S140
M5
G0 X23.000 Y35.100
M4 S140
G1 X31.000 Y35.100 F1600 S140
M5
G0 X31.000 Y35.650
M4 S140
G1 X23.000 Y35.650 F1600 S140
M5
G0 X23.000 Y36.200
M4 S140
G1 X31.000 Y36.200 F1600 S140
M5
G0 X31.000 Y36.750
M4 S140
G1 X23.000 Y36.750 F1600 S140
M5
G0 X23.000 Y37.300
M4 S140
G1 X31.000 Y37.300 F1600 S140
M5
G0 X31.000 Y37.850
M4 S140
G1 X23.000 Y37.850 F1600 S140
M5
G0 X23.000 Y38.400
M4 S140
G1 X31.000 Y38.400 F1600 S140
M5
G0 X31.000 Y38.950
M4 S140
G1 X23.000 Y38.950 F1600 S140
M5
G0 X23.000 Y39.500
M4 S140
G1 X31.000 Y39.500 F1600 S140
M5
G0 X31.000 Y40.050
M4 S140
G1 X23.000 Y40.050 F1600 S140
M5
G0 X23.000 Y40.600
M4 S140
G1 X31.000 Y40.600 F1600 S140
M5
G0 X31.000 Y41.150
M4 S140
G1 X23.000 Y41.150 F1600 S140
M5
G0 X23.000 Y41.700
M4 S140
G1 X31.000 Y41.700 F1600 S140
M5
; Cell row feed 1600 mm/min, power S220
G0 X34.000 Y34.000
M4 S220
G1 X42.000 Y34.000 F1600 S220
M5
G0 X42.000 Y34.550
M4 S220
G1 X34.000 Y34.550 F1600 S220
M5
G0 X34.000 Y35.100
M4 S220
G1 X42.000 Y35.100 F1600 S220
M5
G0 X42.000 Y35.650
M4 S220
G1 X34.000 Y35.650 F1600 S220
M5
G0 X34.000 Y36.200
M4 S220
G1 X42.000 Y36.200 F1600 S220
M5
G0 X42.000 Y36.750
M4 S220
G1 X34.000 Y36.750 F1600 S220
M5
G0 X34.000 Y37.300
M4 S220
G1 X42.000 Y37.300 F1600 S220
M5
G0 X42.000 Y37.850
M4 S220
G1 X34.000 Y37.850 F1600 S220
M5
G0 X34.000 Y38.400
M4 S220
G1 X42.000 Y38.400 F1600 S220
M5
G0 X42.000 Y38.950
M4 S220
G1 X34.000 Y38.950 F1600 S220
M5
G0 X34.000 Y39.500
M4 S220
G1 X42.000 Y39.500 F1600 S220
M5
G0 X42.000 Y40.050
M4 S220
G1 X34.000 Y40.050 F1600 S220
M5
G0 X34.000 Y40.600
M4 S220
G1 X42.000 Y40.600 F1600 S220
M5
G0 X42.000 Y41.150
M4 S220
G1 X34.000 Y41.150 F1600 S220
M5
G0 X34.000 Y41.700
M4 S220
G1 X42.000 Y41.700 F1600 S220
M5
; Cell row feed 1600 mm/min, power S320
G0 X45.000 Y34.000
M4 S320
G1 X53.000 Y34.000 F1600 S320
M5
G0 X53.000 Y34.550
M4 S320
G1 X45.000 Y34.550 F1600 S320
M5
G0 X45.000 Y35.100
M4 S320
G1 X53.000 Y35.100 F1600 S320
M5
G0 X53.000 Y35.650
M4 S320
G1 X45.000 Y35.650 F1600 S320
M5
G0 X45.000 Y36.200
M4 S320
G1 X53.000 Y36.200 F1600 S320
M5
G0 X53.000 Y36.750
M4 S320
G1 X45.000 Y36.750 F1600 S320
M5
G0 X45.000 Y37.300
M4 S320
G1 X53.000 Y37.300 F1600 S320
M5
G0 X53.000 Y37.850
M4 S320
G1 X45.000 Y37.850 F1600 S320
M5
G0 X45.000 Y38.400
M4 S320
G1 X53.000 Y38.400 F1600 S320
M5
G0 X53.000 Y38.950
M4 S320
G1 X45.000 Y38.950 F1600 S320
M5
G0 X45.000 Y39.500
M4 S320
G1 X53.000 Y39.500 F1600 S320
M5
G0 X53.000 Y40.050
M4 S320
G1 X45.000 Y40.050 F1600 S320
M5
G0 X45.000 Y40.600
M4 S320
G1 X53.000 Y40.600 F1600 S320
M5
G0 X53.000 Y41.150
M4 S320
G1 X45.000 Y41.150 F1600 S320
M5
G0 X45.000 Y41.700
M4 S320
G1 X53.000 Y41.700 F1600 S320
M5
; Cell row feed 1600 mm/min, power S430
G0 X56.000 Y34.000
M4 S430
G1 X64.000 Y34.000 F1600 S430
M5
G0 X64.000 Y34.550
M4 S430
G1 X56.000 Y34.550 F1600 S430
M5
G0 X56.000 Y35.100
M4 S430
G1 X64.000 Y35.100 F1600 S430
M5
G0 X64.000 Y35.650
M4 S430
G1 X56.000 Y35.650 F1600 S430
M5
G0 X56.000 Y36.200
M4 S430
G1 X64.000 Y36.200 F1600 S430
M5
G0 X64.000 Y36.750
M4 S430
G1 X56.000 Y36.750 F1600 S430
M5
G0 X56.000 Y37.300
M4 S430
G1 X64.000 Y37.300 F1600 S430
M5
G0 X64.000 Y37.850
M4 S430
G1 X56.000 Y37.850 F1600 S430
M5
G0 X56.000 Y38.400
M4 S430
G1 X64.000 Y38.400 F1600 S430
M5
G0 X64.000 Y38.950
M4 S430
G1 X56.000 Y38.950 F1600 S430
M5
G0 X56.000 Y39.500
M4 S430
G1 X64.000 Y39.500 F1600 S430
M5
G0 X64.000 Y40.050
M4 S430
G1 X56.000 Y40.050 F1600 S430
M5
G0 X56.000 Y40.600
M4 S430
G1 X64.000 Y40.600 F1600 S430
M5
G0 X64.000 Y41.150
M4 S430
G1 X56.000 Y41.150 F1600 S430
M5
G0 X56.000 Y41.700
M4 S430
G1 X64.000 Y41.700 F1600 S430
M5
; Cell row feed 2400 mm/min, power S80
G0 X12.000 Y45.000
M4 S80
G1 X20.000 Y45.000 F2400 S80
M5
G0 X20.000 Y45.550
M4 S80
G1 X12.000 Y45.550 F2400 S80
M5
G0 X12.000 Y46.100
M4 S80
G1 X20.000 Y46.100 F2400 S80
M5
G0 X20.000 Y46.650
M4 S80
G1 X12.000 Y46.650 F2400 S80
M5
G0 X12.000 Y47.200
M4 S80
G1 X20.000 Y47.200 F2400 S80
M5
G0 X20.000 Y47.750
M4 S80
G1 X12.000 Y47.750 F2400 S80
M5
G0 X12.000 Y48.300
M4 S80
G1 X20.000 Y48.300 F2400 S80
M5
G0 X20.000 Y48.850
M4 S80
G1 X12.000 Y48.850 F2400 S80
M5
G0 X12.000 Y49.400
M4 S80
G1 X20.000 Y49.400 F2400 S80
M5
G0 X20.000 Y49.950
M4 S80
G1 X12.000 Y49.950 F2400 S80
M5
G0 X12.000 Y50.500
M4 S80
G1 X20.000 Y50.500 F2400 S80
M5
G0 X20.000 Y51.050
M4 S80
G1 X12.000 Y51.050 F2400 S80
M5
G0 X12.000 Y51.600
M4 S80
G1 X20.000 Y51.600 F2400 S80
M5
G0 X20.000 Y52.150
M4 S80
G1 X12.000 Y52.150 F2400 S80
M5
G0 X12.000 Y52.700
M4 S80
G1 X20.000 Y52.700 F2400 S80
M5
; Cell row feed 2400 mm/min, power S140
G0 X23.000 Y45.000
M4 S140
G1 X31.000 Y45.000 F2400 S140
M5
G0 X31.000 Y45.550
M4 S140
G1 X23.000 Y45.550 F2400 S140
M5
G0 X23.000 Y46.100
M4 S140
G1 X31.000 Y46.100 F2400 S140
M5
G0 X31.000 Y46.650
M4 S140
G1 X23.000 Y46.650 F2400 S140
M5
G0 X23.000 Y47.200
M4 S140
G1 X31.000 Y47.200 F2400 S140
M5
G0 X31.000 Y47.750
M4 S140
G1 X23.000 Y47.750 F2400 S140
M5
G0 X23.000 Y48.300
M4 S140
G1 X31.000 Y48.300 F2400 S140
M5
G0 X31.000 Y48.850
M4 S140
G1 X23.000 Y48.850 F2400 S140
M5
G0 X23.000 Y49.400
M4 S140
G1 X31.000 Y49.400 F2400 S140
M5
G0 X31.000 Y49.950
M4 S140
G1 X23.000 Y49.950 F2400 S140
M5
G0 X23.000 Y50.500
M4 S140
G1 X31.000 Y50.500 F2400 S140
M5
G0 X31.000 Y51.050
M4 S140
G1 X23.000 Y51.050 F2400 S140
M5
G0 X23.000 Y51.600
M4 S140
G1 X31.000 Y51.600 F2400 S140
M5
G0 X31.000 Y52.150
M4 S140
G1 X23.000 Y52.150 F2400 S140
M5
G0 X23.000 Y52.700
M4 S140
G1 X31.000 Y52.700 F2400 S140
M5
; Cell row feed 2400 mm/min, power S220
G0 X34.000 Y45.000
M4 S220
G1 X42.000 Y45.000 F2400 S220
M5
G0 X42.000 Y45.550
M4 S220
G1 X34.000 Y45.550 F2400 S220
M5
G0 X34.000 Y46.100
M4 S220
G1 X42.000 Y46.100 F2400 S220
M5
G0 X42.000 Y46.650
M4 S220
G1 X34.000 Y46.650 F2400 S220
M5
G0 X34.000 Y47.200
M4 S220
G1 X42.000 Y47.200 F2400 S220
M5
G0 X42.000 Y47.750
M4 S220
G1 X34.000 Y47.750 F2400 S220
M5
G0 X34.000 Y48.300
M4 S220
G1 X42.000 Y48.300 F2400 S220
M5
G0 X42.000 Y48.850
M4 S220
G1 X34.000 Y48.850 F2400 S220
M5
G0 X34.000 Y49.400
M4 S220
G1 X42.000 Y49.400 F2400 S220
M5
G0 X42.000 Y49.950
M4 S220
G1 X34.000 Y49.950 F2400 S220
M5
G0 X34.000 Y50.500
M4 S220
G1 X42.000 Y50.500 F2400 S220
M5
G0 X42.000 Y51.050
M4 S220
G1 X34.000 Y51.050 F2400 S220
M5
G0 X34.000 Y51.600
M4 S220
G1 X42.000 Y51.600 F2400 S220
M5
G0 X42.000 Y52.150
M4 S220
G1 X34.000 Y52.150 F2400 S220
M5
G0 X34.000 Y52.700
M4 S220
G1 X42.000 Y52.700 F2400 S220
M5
; Cell row feed 2400 mm/min, power S320
G0 X45.000 Y45.000
M4 S320
G1 X53.000 Y45.000 F2400 S320
M5
G0 X53.000 Y45.550
M4 S320
G1 X45.000 Y45.550 F2400 S320
M5
G0 X45.000 Y46.100
M4 S320
G1 X53.000 Y46.100 F2400 S320
M5
G0 X53.000 Y46.650
M4 S320
G1 X45.000 Y46.650 F2400 S320
M5
G0 X45.000 Y47.200
M4 S320
G1 X53.000 Y47.200 F2400 S320
M5
G0 X53.000 Y47.750
M4 S320
G1 X45.000 Y47.750 F2400 S320
M5
G0 X45.000 Y48.300
M4 S320
G1 X53.000 Y48.300 F2400 S320
M5
G0 X53.000 Y48.850
M4 S320
G1 X45.000 Y48.850 F2400 S320
M5
G0 X45.000 Y49.400
M4 S320
G1 X53.000 Y49.400 F2400 S320
M5
G0 X53.000 Y49.950
M4 S320
G1 X45.000 Y49.950 F2400 S320
M5
G0 X45.000 Y50.500
M4 S320
G1 X53.000 Y50.500 F2400 S320
M5
G0 X53.000 Y51.050
M4 S320
G1 X45.000 Y51.050 F2400 S320
M5
G0 X45.000 Y51.600
M4 S320
G1 X53.000 Y51.600 F2400 S320
M5
G0 X53.000 Y52.150
M4 S320
G1 X45.000 Y52.150 F2400 S320
M5
G0 X45.000 Y52.700
M4 S320
G1 X53.000 Y52.700 F2400 S320
M5
; Cell row feed 2400 mm/min, power S430
G0 X56.000 Y45.000
M4 S430
G1 X64.000 Y45.000 F2400 S430
M5
G0 X64.000 Y45.550
M4 S430
G1 X56.000 Y45.550 F2400 S430
M5
G0 X56.000 Y46.100
M4 S430
G1 X64.000 Y46.100 F2400 S430
M5
G0 X64.000 Y46.650
M4 S430
G1 X56.000 Y46.650 F2400 S430
M5
G0 X56.000 Y47.200
M4 S430
G1 X64.000 Y47.200 F2400 S430
M5
G0 X64.000 Y47.750
M4 S430
G1 X56.000 Y47.750 F2400 S430
M5
G0 X56.000 Y48.300
M4 S430
G1 X64.000 Y48.300 F2400 S430
M5
G0 X64.000 Y48.850
M4 S430
G1 X56.000 Y48.850 F2400 S430
M5
G0 X56.000 Y49.400
M4 S430
G1 X64.000 Y49.400 F2400 S430
M5
G0 X64.000 Y49.950
M4 S430
G1 X56.000 Y49.950 F2400 S430
M5
G0 X56.000 Y50.500
M4 S430
G1 X64.000 Y50.500 F2400 S430
M5
G0 X64.000 Y51.050
M4 S430
G1 X56.000 Y51.050 F2400 S430
M5
G0 X56.000 Y51.600
M4 S430
G1 X64.000 Y51.600 F2400 S430
M5
G0 X64.000 Y52.150
M4 S430
G1 X56.000 Y52.150 F2400 S430
M5
G0 X56.000 Y52.700
M4 S430
G1 X64.000 Y52.700 F2400 S430
M5
M5
M9
G0 X0 Y0
; End
